LEMUR-2-FINNIAN         
1 66782U 25276DX  26159.14326524  .00005921  00000+0  47698-3 0  9994
2 66782  97.5256 230.4243 0008538 116.1119 244.0985 15.00262468 18642
LEMUR-2-STARLIGHT       
1 66783U 25276DY  26159.15835773  .00005428  00000+0  45216-3 0  9993
2 66783  97.5274 230.1048 0015352 153.7795 206.4209 14.98948334 28845
LEMUR-2-TARTIFLETTE     
1 66784U 25276DZ  26159.42402235  .00006269  00000+0  52120-3 0  9993
2 66784  97.5277 230.3668 0013946 159.1444 201.0351 14.98975650 28881
LEMUR-2-VUKASIN         
1 66785U 25276EA  26159.42523918  .00005978  00000+0  48163-3 0  9994
2 66785  97.5307 230.6436 0006276 144.8230 215.3410 15.00270161 28832
LEMUR-2-HOTSPUR-TOM     
1 66786U 25276EB  26159.48266168  .00006526  00000+0  54387-3 0  9997
2 66786  97.5253 230.4075 0015321 154.1031 206.0963 14.98851928 28825
LEMUR-2-MYRA            
1 66787U 25276EC  26159.18910103  .00005820  00000+0  46984-3 0  9990
2 66787  97.5218 230.3667 0015505 171.4392 188.7100 15.00122724 28861
LEMUR-2 FIKRETDENGIZ    
1 67363U 26004A   26158.99069848  .00004447  00000+0  48687-3 0  9996
2 67363  97.8015 157.6907 0009286 160.0491 200.1090 14.88259665 21917
TWILIGHT-1 OBJECT B     
1 67364U 26004B   26159.48224053  .00002151  00000+0  24210-3 0  9999
2 67364  97.8059 158.1934 0009387 149.5743 210.6020 14.87673121 21999
LEMUR-2-MARIO-SOUSA     
1 67365U 26004C   26159.51326568  .00004097  00000+0  44706-3 0  9991
2 67365  97.7993 158.2016 0008931 158.8975 201.2612 14.88445614 22003
LEMUR-2-SONNENBLUME     
1 67367U 26004E   26159.51057522  .00002690  00000+0  29684-3 0  9999
2 67367  97.7984 158.1867 0008448 160.7050 199.4488 14.88272868 22005
LEMUR-2-WOBLER          
1 67368U 26004F   26159.23629353  .00003414  00000+0  37340-3 0  9999
2 67368  97.8041 158.0302 0008890 150.9848 209.1865 14.88456535 21968
LEMUR-2-GRAM-E-SUE      
1 67370U 26004H   26159.22672773  .00002464  00000+0  27137-3 0  9992
2 67370  97.7973 157.9220 0007491 161.8793 198.2692 14.88432151 21961
LEMUR-2-KATIE           
1 67387U 26004AA  26159.49205800  .00004910  00000+0  51475-3 0  9992
2 67387  97.8037 158.6143 0004748 110.9260 249.2466 14.89994681 22014
LEMUR-2-HCS-BAZUS       
1 67388U 26004AB  26159.22254468  .00004972  00000+0  52131-3 0  9996
2 67388  97.8026 158.3303 0004371 106.6992 253.4705 14.89987091 21978
